OBJECT_NAME,OBJECT_ID,EPOCH,MEAN_MOTION,ECCENTRICITY,INCLINATION,RA_OF_ASC_NODE,ARG_OF_PERICENTER,MEAN_ANOMALY,EPHEMERIS_TYPE,CLASSIFICATION_TYPE,NORAD_CAT_ID,ELEMENT_SET_NO,REV_AT_EPOCH,BSTAR,MEAN_MOTION_DOT,MEAN_MOTION_DDOT
IRIDIUM 154,2018-061F,2026-06-13T22:51:34.283232,14.34219324,.0002107,86.3967,58.1595,87.0070,273.1367,0,U,43574,999,41294,.7306222E-4,.224E-5,0
IRIDIUM 163,2018-061G,2026-06-13T22:24:09.965952,14.34216625,.00022707,86.3962,58.0828,83.3932,276.7522,0,U,43575,999,41291,.32133334E-4,.11E-5,0
IRIDIUM 156,2018-061H,2026-06-13T23:28:06.380832,14.34218132,.00020741,86.3961,58.0714,81.2180,278.9251,0,U,43576,999,41291,.80760425E-4,.246E-5,0
IRIDIUM 164,2018-061J,2026-06-13T23:00:42.472224,14.34217795,.00021017,86.3964,58.1198,88.6671,271.4765,0,U,43577,999,41295,.19472811E-4,.74E-6,0
IRIDIUM 159,2018-061K,2026-06-13T18:54:06.464448,14.34217972,.00022973,86.3962,58.1282,84.1512,275.9945,0,U,43578,999,41289,.46710829E-4,.151E-5,0
IRIDIUM 180,2019-002A,2026-06-13T22:14:18.928608,14.34217455,.0002152,86.3968,354.9609,89.2356,270.9087,0,U,43922,999,38852,-.6438218E-5,.2E-7,0
IRIDIUM 176,2019-002B,2026-06-13T13:21:36.787392,14.72262769,.0002251,86.6091,355.0597,92.0404,268.1071,0,U,43923,999,39871,.1127E-3,.735E-5,0
IRIDIUM 168,2019-002C,2026-06-13T22:05:10.908096,14.34218150,.0002172,86.3974,355.0409,88.8974,271.2471,0,U,43924,999,38850,.18551626E-4,.72E-6,0
IRIDIUM 173,2019-002D,2026-06-13T21:46:54.974208,14.34217355,.00022098,86.3968,354.9349,86.9486,273.1963,0,U,43925,999,38848,.7419283E-5,.41E-6,0
IRIDIUM 169,2019-002E,2026-06-13T21:55:32.197440,14.38607612,.00019709,86.4227,26.5622,71.3798,288.7614,0,U,43926,999,38975,.79537049E-4,.263E-5,0
IRIDIUM 172,2019-002F,2026-06-13T21:37:46.887168,14.34217374,.00022561,86.3969,354.9457,88.9401,271.2053,0,U,43927,999,38849,.33248928E-4,.113E-5,0
IRIDIUM 175,2019-002G,2026-06-13T21:06:21.202848,14.43611075,.00020681,86.4509,291.9039,190.4978,169.6180,0,U,43928,999,39850,.77680931E-4,.283E-5,0
IRIDIUM 171,2019-002H,2026-06-13T21:10:22.912032,14.34216448,.00018909,86.3976,355.2596,88.0655,272.0758,0,U,43929,999,38848,-.67866142E-4,-.17E-5,0
IRIDIUM 170,2019-002J,2026-06-13T21:39:52.730496,14.72263661,.00023566,86.6091,354.9174,88.5898,271.5589,0,U,43930,999,39877,.1115924E-3,.728E-5,0
IRIDIUM 167,2019-002K,2026-06-13T22:41:42.851904,14.34217664,.00017472,86.3967,354.9494,89.2117,270.9279,0,U,43931,999,38849,-.1297294E-5,.16E-6,0
IRIDIUM 181,2023-068S,2026-06-13T18:41:14.863200,14.43312920,.00023456,86.4501,58.2155,89.1984,270.9485,0,U,56726,999,16194,.78537503E-4,.285E-5,0
IRIDIUM 177,2023-068T,2026-06-13T22:37:11.441856,14.80224944,.000239,86.1959,330.3328,87.2912,272.8583,0,U,56727,999,16588,.13113933E-3,.1023E-4,0
IRIDIUM 174,2023-068U,2026-06-13T19:44:13.755552,14.72259806,.00025051,86.6098,355.0981,84.3940,275.7563,0,U,56728,999,16552,.11538108E-3,.752E-5,0
IRIDIUM 178,2023-068V,2026-06-13T20:44:11.671872,14.80228676,.0002662,86.6540,26.7491,86.7440,273.4086,0,U,56729,999,16587,.11676398E-3,.913E-5,0
IRIDIUM 179,2023-068W,2026-06-13T22:13:46.252128,14.80232567,.0002439,86.6783,35.6934,88.5072,271.6430,0,U,56730,999,16588,.11632643E-3,.91E-5,0
