IRIDIUM 154             
1 43574U 18061F   26164.95248013  .00000224  00000+0  73062-4 0  9999
2 43574  86.3967  58.1595 0002107  87.0070 273.1367 14.34219324412941
IRIDIUM 163             
1 43575U 18061G   26164.93344868  .00000110  00000+0  32133-4 0  9991
2 43575  86.3962  58.0828 0002270  83.3932 276.7522 14.34216625412912
IRIDIUM 156             
1 43576U 18061H   26164.97785163  .00000246  00000+0  80760-4 0  9992
2 43576  86.3961  58.0714 0002074  81.2180 278.9251 14.34218132412918
IRIDIUM 164             
1 43577U 18061J   26164.95882491  .00000074  00000+0  19473-4 0  9995
2 43577  86.3964  58.1198 0002101  88.6671 271.4765 14.34217795412952
IRIDIUM 159             
1 43578U 18061K   26164.78757482  .00000151  00000+0  46711-4 0  9999
2 43578  86.3962  58.1282 0002297  84.1512 275.9945 14.34217972412895
IRIDIUM 180             
1 43922U 19002A   26164.92660797  .00000002  00000+0 -64382-5 0  9997
2 43922  86.3968 354.9609 0002152  89.2356 270.9087 14.34217455388526
IRIDIUM 176             
1 43923U 19002B   26164.55667578  .00000735  00000+0  11270-3 0  9999
2 43923  86.6091 355.0597 0002251  92.0404 268.1071 14.72262769398715
IRIDIUM 168             
1 43924U 19002C   26164.92026514  .00000072  00000+0  18552-4 0  9995
2 43924  86.3974 355.0409 0002172  88.8974 271.2471 14.34218150388500
IRIDIUM 173             
1 43925U 19002D   26164.90758072  .00000041  00000+0  74193-5 0  9995
2 43925  86.3968 354.9349 0002209  86.9486 273.1963 14.34217355388483
IRIDIUM 169             
1 43926U 19002E   26164.91356710  .00000263  00000+0  79537-4 0  9992
2 43926  86.4227  26.5622 0001970  71.3798 288.7614 14.38607612389756
IRIDIUM 172             
1 43927U 19002F   26164.90123712  .00000113  00000+0  33249-4 0  9990
2 43927  86.3969 354.9457 0002256  88.9401 271.2053 14.34217374388498
IRIDIUM 175             
1 43928U 19002G   26164.87941207  .00000283  00000+0  77681-4 0  9990
2 43928  86.4509 291.9039 0002068 190.4978 169.6180 14.43611075398505
IRIDIUM 171             
1 43929U 19002H   26164.88220963 -.00000170  00000+0 -67866-4 0  9992
2 43929  86.3976 355.2596 0001890  88.0655 272.0758 14.34216448388482
IRIDIUM 170             
1 43930U 19002J   26164.90269364  .00000728  00000+0  11159-3 0  9995
2 43930  86.6091 354.9174 0002356  88.5898 271.5589 14.72263661398775
IRIDIUM 167             
1 43931U 19002K   26164.94563486  .00000016  00000+0 -12973-5 0  9990
2 43931  86.3967 354.9494 0001747  89.2117 270.9279 14.34217664388492
IRIDIUM 181             
1 56726U 23068S   26164.77864425  .00000285  00000+0  78538-4 0  9996
2 56726  86.4501  58.2155 0002345  89.1984 270.9485 14.43312920161946
IRIDIUM 177             
1 56727U 23068T   26164.94249354  .00001023  00000+0  13114-3 0  9993
2 56727  86.1959 330.3328 0002390  87.2912 272.8583 14.80224944165883
IRIDIUM 174             
1 56728U 23068U   26164.82238143  .00000752  00000+0  11538-3 0  9991
2 56728  86.6098 355.0981 0002505  84.3940 275.7563 14.72259806165526
IRIDIUM 178             
1 56729U 23068V   26164.86402398  .00000913  00000+0  11676-3 0  9993
2 56729  86.6540  26.7491 0002662  86.7440 273.4086 14.80228676165875
IRIDIUM 179             
1 56730U 23068W   26164.92622977  .00000910  00000+0  11633-3 0  9999
2 56730  86.6783  35.6934 0002439  88.5072 271.6430 14.80232567165888
